{
  "type": "FeatureCollection",
  "features": [
    {
      "type": "Feature",
      "properties": {"sigla": "AC", "name": "Acre"},
      "geometry": {
        "type": "Polygon",
        "coordinates": [[
          [-73.99, -7.36], [-73.20, -9.82], [-72.19, -10.96],
          [-70.64, -11.01], [-69.58, -10.95], [-68.74, -11.35],
          [-67.81, -11.00], [-67.81, -10.20], [-68.57, -9.68],
          [-69.50, -9.78], [-70.79, -9.64], [-72.19, -9.12],
          [-73.21, -8.38], [-73.99, -7.36]
        ]]
      }
    },
    {
      "type": "Feature",
      "properties": {"sigla": "AL", "name": "Alagoas"},
      "geometry": {
        "type": "Polygon",
        "coordinates": [[
          [-37.25, -8.95], [-37.95, -9.48], [-38.25, -9.60],
          [-38.69, -9.50], [-38.95, -9.20], [-38.23, -8.82],
          [-37.75, -8.65], [-37.25, -8.65], [-36.68, -8.85],
          [-36.36, -9.80], [-35.60, -9.80], [-35.10, -9.34],
          [-35.15, -8.90], [-35.57, -8.65], [-36.25, -8.65],
          [-37.25, -8.95]
        ]]
      }
    },
    {
      "type": "Feature",
      "properties": {"sigla": "AP", "name": "Amapá"},
      "geometry": {
        "type": "Polygon",
        "coordinates": [[
          [-51.15, 4.22], [-50.45, 3.35], [-49.95, 2.18],
          [-50.75, 1.20], [-51.30, 0.62], [-51.30, -0.10],
          [-51.75, -0.40], [-52.59, -0.10], [-53.10, 0.60],
          [-53.10, 1.50], [-52.50, 2.25], [-51.90, 3.15],
          [-51.15, 4.22]
        ]]
      }
    },
    {
      "type": "Feature",
      "properties": {"sigla": "AM", "name": "Amazonas"},
      "geometry": {
        "type": "Polygon",
        "coordinates": [[
          [-73.99, -7.36], [-73.21, -8.38], [-72.19, -9.12],
          [-70.79, -9.64], [-69.50, -9.78], [-68.57, -9.68],
          [-67.81, -10.20], [-67.81, -11.00], [-66.50, -10.25],
          [-65.40, -9.90], [-64.45, -8.00], [-63.20, -7.00],
          [-62.10, -6.50], [-60.50, -5.00], [-59.75, -4.50],
          [-59.80, -3.50], [-60.50, -2.00], [-61.50, -1.00],
          [-62.70, -0.40], [-64.00, 0.50], [-65.00, 0.50],
          [-66.00, 1.20], [-67.00, 1.80], [-67.00, 0.80],
          [-67.70, 0.20], [-68.80, -0.30], [-69.50, -1.00],
          [-70.00, -2.00], [-71.00, -2.50], [-72.50, -2.50],
          [-73.20, -3.50], [-73.99, -7.36]
        ]]
      }
    },
    {
      "type": "Feature",
      "properties": {"sigla": "BA", "name": "Bahia"},
      "geometry": {
        "type": "Polygon",
        "coordinates": [[
          [-44.00, -9.00], [-44.70, -10.10], [-45.30, -10.80],
          [-46.20, -11.00], [-46.50, -12.00], [-46.00, -13.00],
          [-46.30, -13.80], [-46.00, -14.70], [-44.90, -16.20],
          [-43.80, -17.20], [-42.50, -17.80], [-41.00, -17.40],
          [-40.00, -17.00], [-39.00, -17.30], [-38.00, -17.00],
          [-37.50, -16.00], [-38.50, -14.00], [-38.80, -12.50],
          [-38.50, -11.50], [-37.50, -10.50], [-37.00, -10.00],
          [-38.00, -9.00], [-39.00, -8.50], [-40.00, -8.80],
          [-41.00, -9.30], [-42.00, -9.00], [-43.50, -8.50],
          [-44.00, -9.00]
        ]]
      }
    },
    {
      "type": "Feature",
      "properties": {"sigla": "CE", "name": "Ceará"},
      "geometry": {
        "type": "Polygon",
        "coordinates": [[
          [-41.00, -2.80], [-40.50, -2.50], [-39.50, -2.60],
          [-38.50, -3.00], [-37.50, -3.50], [-37.00, -4.50],
          [-37.00, -5.50], [-37.50, -6.50], [-38.00, -7.00],
          [-39.00, -7.50], [-40.00, -7.50], [-41.00, -7.00],
          [-41.50, -6.00], [-41.50, -5.00], [-41.50, -4.00],
          [-41.00, -2.80]
        ]]
      }
    },
    {
      "type": "Feature",
      "properties": {"sigla": "DF", "name": "Distrito Federal"},
      "geometry": {
        "type": "Polygon",
        "coordinates": [[
          [-48.30, -15.50], [-47.80, -15.50], [-47.30, -15.80],
          [-47.30, -16.10], [-47.60, -16.10], [-48.30, -15.80],
          [-48.30, -15.50]
        ]]
      }
    },
    {
      "type": "Feature",
      "properties": {"sigla": "ES", "name": "Espírito Santo"},
      "geometry": {
        "type": "Polygon",
        "coordinates": [[
          [-41.00, -17.40], [-40.50, -17.70], [-40.00, -18.00],
          [-39.70, -18.70], [-39.50, -19.60], [-39.70, -20.30],
          [-40.00, -20.80], [-40.80, -21.30], [-41.50, -21.00],
          [-41.50, -20.00], [-41.00, -19.00], [-41.00, -18.00],
          [-41.00, -17.40]
        ]]
      }
    },
    {
      "type": "Feature",
      "properties": {"sigla": "GO", "name": "Goiás"},
      "geometry": {
        "type": "Polygon",
        "coordinates": [[
          [-51.00, -13.00], [-51.00, -14.00], [-52.00, -14.50],
          [-53.00, -15.50], [-53.00, -16.50], [-52.50, -17.50],
          [-52.00, -18.00], [-51.00, -18.50], [-50.00, -18.50],
          [-49.00, -18.00], [-48.30, -15.80], [-47.60, -16.10],
          [-47.30, -16.10], [-47.30, -15.80], [-47.80, -15.50],
          [-48.30, -15.50], [-48.00, -14.50], [-48.00, -13.50],
          [-49.00, -13.00], [-50.00, -12.50], [-51.00, -13.00]
        ]]
      }
    },
    {
      "type": "Feature",
      "properties": {"sigla": "MA", "name": "Maranhão"},
      "geometry": {
        "type": "Polygon",
        "coordinates": [[
          [-44.00, -2.00], [-43.50, -2.50], [-43.00, -3.50],
          [-42.00, -3.50], [-41.00, -2.80], [-41.50, -4.00],
          [-41.50, -5.00], [-41.50, -6.00], [-41.00, -7.00],
          [-42.00, -7.50], [-43.00, -7.00], [-44.00, -7.00],
          [-45.00, -6.50], [-46.00, -7.00], [-46.00, -6.00],
          [-47.00, -5.50], [-48.00, -5.00], [-48.50, -4.50],
          [-48.50, -3.50], [-47.50, -3.00], [-46.50, -3.00],
          [-45.50, -3.00], [-44.50, -2.50], [-44.00, -2.00]
        ]]
      }
    },
    {
      "type": "Feature",
      "properties": {"sigla": "MT", "name": "Mato Grosso"},
      "geometry": {
        "type": "Polygon",
        "coordinates": [[
          [-60.50, -8.00], [-60.50, -9.00], [-60.00, -10.00],
          [-59.50, -11.00], [-58.50, -12.00], [-58.00, -13.00],
          [-57.50, -14.00], [-57.00, -15.00], [-56.50, -15.50],
          [-55.50, -16.00], [-54.50, -16.00], [-54.00, -15.50],
          [-53.00, -15.50], [-52.00, -14.50], [-51.00, -14.00],
          [-51.00, -13.00], [-52.00, -13.00], [-52.50, -12.00],
          [-53.00, -11.00], [-53.50, -10.00], [-54.00, -9.00],
          [-55.00, -8.50], [-56.00, -8.00], [-57.00, -7.50],
          [-58.00, -7.50], [-59.00, -7.50], [-60.00, -7.50],
          [-60.50, -8.00]
        ]]
      }
    },
    {
      "type": "Feature",
      "properties": {"sigla": "MS", "name": "Mato Grosso do Sul"},
      "geometry": {
        "type": "Polygon",
        "coordinates": [[
          [-54.50, -16.00], [-55.50, -16.00], [-56.50, -15.50],
          [-57.00, -16.50], [-57.50, -17.50], [-58.00, -18.50],
          [-58.00, -20.00], [-57.50, -21.00], [-57.00, -22.00],
          [-56.00, -22.50], [-55.00, -22.50], [-54.00, -22.50],
          [-53.50, -23.00], [-53.00, -23.50], [-54.00, -22.00],
          [-53.00, -21.00], [-53.00, -20.00], [-53.00, -19.00],
          [-53.00, -18.00], [-53.50, -17.00], [-54.00, -16.50],
          [-54.50, -16.00]
        ]]
      }
    },
    {
      "type": "Feature",
      "properties": {"sigla": "MG", "name": "Minas Gerais"},
      "geometry": {
        "type": "Polygon",
        "coordinates": [[
          [-44.00, -14.00], [-44.90, -16.20], [-44.00, -17.00],
          [-43.80, -17.20], [-42.50, -17.80], [-41.00, -17.40],
          [-41.00, -18.00], [-41.50, -21.00], [-43.00, -22.00],
          [-44.00, -23.00], [-45.00, -23.50], [-46.00, -23.50],
          [-47.50, -23.00], [-48.00, -22.00], [-49.00, -21.00],
          [-50.00, -20.00], [-51.00, -18.50], [-52.00, -18.00],
          [-52.50, -17.50], [-53.00, -16.50], [-51.00, -16.00],
          [-50.00, -15.00], [-49.00, -14.00], [-48.00, -13.50],
          [-48.00, -14.50], [-48.30, -15.50], [-47.80, -15.50],
          [-47.30, -15.80], [-47.30, -16.10], [-47.60, -16.10],
          [-48.30, -15.80], [-49.00, -18.00], [-50.00, -18.50],
          [-49.00, -14.00], [-48.00, -13.50], [-47.00, -13.50],
          [-46.00, -14.00], [-45.00, -13.50], [-44.00, -14.00]
        ]]
      }
    },
    {
      "type": "Feature",
      "properties": {"sigla": "PA", "name": "Pará"},
      "geometry": {
        "type": "Polygon",
        "coordinates": [[
          [-51.15, 4.22], [-51.90, 3.15], [-52.50, 2.25],
          [-53.10, 1.50], [-53.10, 0.60], [-52.59, -0.10],
          [-51.75, -0.40], [-51.30, -0.10], [-51.30, 0.62],
          [-50.75, 1.20], [-49.95, 2.18], [-50.45, 3.35],
          [-51.15, 4.22], [-51.30, 4.00], [-52.00, 3.50],
          [-52.50, 2.50], [-53.00, 2.00], [-54.00, 2.00],
          [-55.00, 2.00], [-56.00, 1.80], [-56.50, 1.20],
          [-57.00, 1.00], [-58.00, 1.50], [-58.50, 1.00],
          [-59.80, 1.40], [-60.20, 1.00], [-60.50, 0.20],
          [-61.00, -0.50], [-60.50, -1.00], [-59.80, -1.50],
          [-59.00, -2.00], [-58.00, -2.50], [-57.00, -3.00],
          [-56.00, -3.50], [-55.00, -4.50], [-54.00, -5.00],
          [-53.00, -5.00], [-52.00, -5.00], [-51.00, -4.50],
          [-50.50, -4.00], [-49.50, -3.50], [-49.00, -3.00],
          [-48.50, -3.50], [-48.50, -4.50], [-48.00, -5.00],
          [-47.00, -5.50], [-46.00, -6.00], [-46.00, -7.00],
          [-45.00, -6.50], [-44.00, -7.00], [-43.00, -7.00],
          [-42.00, -7.50], [-43.50, -8.50], [-44.00, -9.00],
          [-44.70, -8.00], [-46.00, -8.00], [-47.00, -8.00],
          [-48.00, -8.00], [-49.00, -8.00], [-50.00, -9.00],
          [-51.00, -9.00], [-51.30, -8.00], [-51.00, -6.00],
          [-51.00, -4.00], [-51.30, -2.00], [-51.00, -0.50],
          [-51.15, 4.22]
        ]]
      }
    },
    {
      "type": "Feature",
      "properties": {"sigla": "PB", "name": "Paraíba"},
      "geometry": {
        "type": "Polygon",
        "coordinates": [[
          [-37.25, -6.00], [-37.50, -6.50], [-38.00, -7.00],
          [-39.00, -7.50], [-40.00, -7.50], [-41.00, -7.00],
          [-40.50, -7.00], [-39.50, -7.30], [-38.50, -7.50],
          [-37.50, -7.50], [-36.50, -7.50], [-35.50, -7.50],
          [-35.00, -7.00], [-34.80, -7.00], [-34.80, -6.50],
          [-35.20, -6.20], [-36.00, -6.00], [-37.25, -6.00]
        ]]
      }
    },
    {
      "type": "Feature",
      "properties": {"sigla": "PR", "name": "Paraná"},
      "geometry": {
        "type": "Polygon",
        "coordinates": [[
          [-53.50, -23.00], [-54.00, -22.50], [-55.00, -22.50],
          [-56.00, -22.50], [-57.00, -22.00], [-57.00, -23.00],
          [-56.50, -24.00], [-56.00, -24.50], [-55.00, -25.00],
          [-54.00, -25.00], [-53.50, -26.00], [-53.00, -26.50],
          [-52.00, -26.50], [-51.00, -26.50], [-50.00, -26.50],
          [-49.00, -26.00], [-48.50, -25.50], [-48.50, -24.50],
          [-48.00, -24.00], [-49.00, -23.00], [-50.00, -23.00],
          [-51.00, -23.00], [-52.00, -23.00], [-53.00, -23.50],
          [-53.50, -23.00]
        ]]
      }
    },
    {
      "type": "Feature",
      "properties": {"sigla": "PE", "name": "Pernambuco"},
      "geometry": {
        "type": "Polygon",
        "coordinates": [[
          [-41.00, -7.00], [-40.00, -7.50], [-39.00, -7.50],
          [-38.00, -7.00], [-37.50, -7.50], [-36.50, -7.50],
          [-35.50, -7.50], [-35.00, -7.00], [-34.80, -8.00],
          [-35.00, -8.50], [-35.50, -8.50], [-36.50, -8.50],
          [-37.50, -8.50], [-38.00, -8.50], [-38.50, -8.50],
          [-39.00, -8.00], [-40.00, -8.00], [-41.00, -8.00],
          [-41.50, -7.50], [-41.00, -7.00]
        ]]
      }
    },
    {
      "type": "Feature",
      "properties": {"sigla": "PI", "name": "Piauí"},
      "geometry": {
        "type": "Polygon",
        "coordinates": [[
          [-41.00, -2.80], [-42.00, -3.50], [-43.00, -3.50],
          [-43.50, -2.50], [-44.50, -2.50], [-44.00, -3.50],
          [-44.50, -4.50], [-45.00, -5.50], [-45.00, -6.50],
          [-44.00, -7.00], [-43.00, -7.00], [-42.00, -7.50],
          [-41.00, -7.00], [-41.50, -6.00], [-41.50, -5.00],
          [-41.50, -4.00], [-41.00, -2.80]
        ]]
      }
    },
    {
      "type": "Feature",
      "properties": {"sigla": "RJ", "name": "Rio de Janeiro"},
      "geometry": {
        "type": "Polygon",
        "coordinates": [[
          [-44.00, -23.00], [-43.50, -22.50], [-43.00, -22.00],
          [-42.50, -22.00], [-41.50, -21.00], [-41.00, -21.50],
          [-40.80, -21.30], [-40.00, -20.80], [-39.70, -20.30],
          [-40.50, -22.00], [-41.00, -22.50], [-41.50, -22.50],
          [-42.00, -22.50], [-43.00, -23.00], [-43.50, -23.00],
          [-44.00, -23.00]
        ]]
      }
    },
    {
      "type": "Feature",
      "properties": {"sigla": "RN", "name": "Rio Grande do Norte"},
      "geometry": {
        "type": "Polygon",
        "coordinates": [[
          [-35.20, -6.20], [-35.00, -5.50], [-35.00, -5.00],
          [-35.50, -4.80], [-36.00, -4.80], [-36.50, -4.80],
          [-37.00, -5.00], [-37.50, -5.00], [-37.50, -5.50],
          [-37.25, -6.00], [-36.00, -6.00], [-35.20, -6.20]
        ]]
      }
    },
    {
      "type": "Feature",
      "properties": {"sigla": "RS", "name": "Rio Grande do Sul"},
      "geometry": {
        "type": "Polygon",
        "coordinates": [[
          [-53.00, -26.50], [-53.50, -26.00], [-54.00, -25.00],
          [-55.00, -25.00], [-56.00, -24.50], [-56.50, -24.00],
          [-57.00, -23.00], [-57.50, -23.00], [-57.50, -24.00],
          [-57.50, -25.00], [-57.50, -26.00], [-57.00, -27.00],
          [-56.50, -28.00], [-56.00, -29.00], [-55.50, -30.00],
          [-54.50, -31.00], [-53.50, -32.00], [-52.50, -32.50],
          [-51.50, -33.50], [-51.00, -34.00], [-50.00, -33.00],
          [-50.00, -32.00], [-50.50, -31.00], [-51.00, -30.00],
          [-51.00, -29.00], [-51.00, -28.00], [-51.00, -27.00],
          [-51.50, -27.00], [-52.00, -27.00], [-52.50, -26.50],
          [-53.00, -26.50]
        ]]
      }
    },
    {
      "type": "Feature",
      "properties": {"sigla": "RO", "name": "Rondônia"},
      "geometry": {
        "type": "Polygon",
        "coordinates": [[
          [-65.40, -9.90], [-64.45, -8.00], [-63.20, -7.00],
          [-62.10, -6.50], [-63.00, -8.00], [-63.00, -9.00],
          [-63.00, -10.00], [-62.50, -11.00], [-62.00, -12.00],
          [-61.50, -13.00], [-61.00, -13.00], [-60.50, -13.00],
          [-60.00, -13.00], [-59.50, -13.00], [-59.00, -13.00],
          [-58.50, -12.00], [-59.50, -11.00], [-60.00, -10.00],
          [-60.50, -9.00], [-60.50, -8.00], [-61.00, -7.50],
          [-62.50, -8.00], [-63.00, -8.00], [-64.00, -9.00],
          [-65.40, -9.90]
        ]]
      }
    },
    {
      "type": "Feature",
      "properties": {"sigla": "RR", "name": "Roraima"},
      "geometry": {
        "type": "Polygon",
        "coordinates": [[
          [-59.80, 1.40], [-60.20, 1.00], [-60.50, 0.20],
          [-61.00, -0.50], [-60.50, -1.00], [-59.75, -1.50],
          [-59.00, -1.00], [-59.00, 0.00], [-59.50, 1.00],
          [-59.50, 2.00], [-60.00, 3.00], [-60.50, 4.00],
          [-61.00, 4.50], [-61.50, 5.00], [-62.00, 4.50],
          [-62.50, 4.00], [-63.00, 3.50], [-63.50, 3.00],
          [-63.50, 2.00], [-64.00, 1.50], [-63.00, 1.00],
          [-62.00, 1.00], [-61.00, 1.00], [-60.50, 1.20],
          [-59.80, 1.40]
        ]]
      }
    },
    {
      "type": "Feature",
      "properties": {"sigla": "SC", "name": "Santa Catarina"},
      "geometry": {
        "type": "Polygon",
        "coordinates": [[
          [-48.50, -25.50], [-49.00, -26.00], [-50.00, -26.50],
          [-51.00, -26.50], [-52.00, -26.50], [-53.00, -26.50],
          [-52.50, -26.50], [-52.00, -27.00], [-51.50, -27.00],
          [-51.00, -27.00], [-51.00, -28.00], [-51.00, -29.00],
          [-50.00, -29.00], [-49.50, -28.50], [-49.00, -28.00],
          [-48.50, -28.00], [-48.50, -27.00], [-48.50, -26.00],
          [-48.50, -25.50]
        ]]
      }
    },
    {
      "type": "Feature",
      "properties": {"sigla": "SP", "name": "São Paulo"},
      "geometry": {
        "type": "Polygon",
        "coordinates": [[
          [-44.00, -23.00], [-45.00, -23.50], [-46.00, -23.50],
          [-47.50, -23.00], [-48.00, -22.00], [-49.00, -21.00],
          [-50.00, -20.00], [-51.00, -18.50], [-52.50, -20.00],
          [-53.00, -21.00], [-53.00, -22.00], [-53.00, -23.50],
          [-53.50, -23.00], [-52.00, -23.00], [-51.00, -23.00],
          [-50.00, -23.00], [-49.00, -23.00], [-48.00, -24.00],
          [-48.50, -24.50], [-48.50, -25.50], [-48.50, -24.50],
          [-48.00, -24.00], [-47.00, -23.50], [-46.00, -24.00],
          [-45.00, -24.00], [-44.50, -23.50], [-44.00, -23.00]
        ]]
      }
    },
    {
      "type": "Feature",
      "properties": {"sigla": "SE", "name": "Sergipe"},
      "geometry": {
        "type": "Polygon",
        "coordinates": [[
          [-37.50, -9.80], [-37.00, -9.50], [-36.50, -9.50],
          [-36.00, -9.50], [-35.60, -9.80], [-35.60, -10.50],
          [-36.00, -11.00], [-37.00, -11.00], [-37.50, -10.50],
          [-38.00, -10.00], [-37.50, -9.80]
        ]]
      }
    },
    {
      "type": "Feature",
      "properties": {"sigla": "TO", "name": "Tocantins"},
      "geometry": {
        "type": "Polygon",
        "coordinates": [[
          [-44.00, -7.00], [-45.00, -6.50], [-46.00, -7.00],
          [-46.00, -8.00], [-47.00, -8.00], [-48.00, -8.00],
          [-49.00, -8.00], [-50.00, -9.00], [-51.00, -9.00],
          [-51.00, -11.00], [-51.00, -13.00], [-50.00, -12.50],
          [-49.00, -13.00], [-48.00, -13.50], [-48.00, -14.50],
          [-48.30, -15.50], [-48.30, -15.80], [-47.60, -16.10],
          [-47.30, -16.10], [-47.30, -15.80], [-47.80, -15.50],
          [-47.00, -14.00], [-46.50, -13.50], [-46.00, -13.00],
          [-46.30, -12.00], [-46.00, -11.00], [-46.00, -10.00],
          [-45.50, -9.00], [-45.00, -8.00], [-44.00, -7.50],
          [-44.00, -7.00]
        ]]
      }
    }
  ]
}
